[{"OBJECT_NAME":"IRIDIUM 33 DEB","OBJECT_ID":"1997-051RA","EPOCH":"2026-03-27T08:57:45.054432","MEAN_MOTION":14.69480901,"ECCENTRICITY":0.0011098,"INCLINATION":86.3569,"RA_OF_ASC_NODE":322.3551,"ARG_OF_PERICENTER":342.8919,"MEAN_ANOMALY":17.192,"EPHEMERIS_TYPE":0,"CLASSIFICATION_TYPE":"U","NORAD_CAT_ID":35628,"ELEMENT_SET_NO":999,"REV_AT_EPOCH":87982,"BSTAR":0.00096163,"MEAN_MOTION_DOT":5.725e-5,"MEAN_MOTION_DDOT":0},{"OBJECT_NAME":"IRIDIUM 33 DEB","OBJECT_ID":"1997-051RD","EPOCH":"2026-03-28T17:16:12.454176","MEAN_MOTION":14.47677457,"ECCENTRICITY":0.00183718,"INCLINATION":86.3693,"RA_OF_ASC_NODE":335.3535,"ARG_OF_PERICENTER":122.69,"MEAN_ANOMALY":300.5355,"EPHEMERIS_TYPE":0,"CLASSIFICATION_TYPE":"U","NORAD_CAT_ID":35631,"ELEMENT_SET_NO":999,"REV_AT_EPOCH":88730,"BSTAR":0.00029156417,"MEAN_MOTION_DOT":1.097e-5,"MEAN_MOTION_DDOT":0},{"OBJECT_NAME":"IRIDIUM 33 DEB","OBJECT_ID":"1997-051RJ","EPOCH":"2026-03-28T22:37:41.602368","MEAN_MOTION":14.22577446,"ECCENTRICITY":0.0150104,"INCLINATION":86.1041,"RA_OF_ASC_NODE":334.4495,"ARG_OF_PERICENTER":302.7665,"MEAN_ANOMALY":72.9155,"EPHEMERIS_TYPE":0,"CLASSIFICATION_TYPE":"U","NORAD_CAT_ID":35680,"ELEMENT_SET_NO":999,"REV_AT_EPOCH":62210,"BSTAR":0.0022286,"MEAN_MOTION_DOT":5.603e-5,"MEAN_MOTION_DDOT":0},{"OBJECT_NAME":"IRIDIUM 33 DEB","OBJECT_ID":"1997-051RX","EPOCH":"2026-03-28T05:54:57.750336","MEAN_MOTION":14.7262873,"ECCENTRICITY":0.0020243,"INCLINATION":86.324,"RA_OF_ASC_NODE":277.6922,"ARG_OF_PERICENTER":189.0661,"MEAN_ANOMALY":171.0193,"EPHEMERIS_TYPE":0,"CLASSIFICATION_TYPE":"U","NORAD_CAT_ID":35744,"ELEMENT_SET_NO":999,"REV_AT_EPOCH":88883,"BSTAR":0.0010787,"MEAN_MOTION_DOT":6.914e-5,"MEAN_MOTION_DDOT":0},{"OBJECT_NAME":"IRIDIUM 33 DEB","OBJECT_ID":"1997-051SF","EPOCH":"2026-03-27T19:11:16.759392","MEAN_MOTION":14.86186887,"ECCENTRICITY":0.00122235,"INCLINATION":86.3305,"RA_OF_ASC_NODE":281.5603,"ARG_OF_PERICENTER":143.5849,"MEAN_ANOMALY":216.6209,"EPHEMERIS_TYPE":0,"CLASSIFICATION_TYPE":"U","NORAD_CAT_ID":35797,"ELEMENT_SET_NO":999,"REV_AT_EPOCH":88899,"BSTAR":0.0014347317,"MEAN_MOTION_DOT":0.00012644,"MEAN_MOTION_DDOT":0},{"OBJECT_NAME":"IRIDIUM 33 DEB","OBJECT_ID":"1997-051SQ","EPOCH":"2026-03-28T10:00:29.634624","MEAN_MOTION":14.58659928,"ECCENTRICITY":0.00159715,"INCLINATION":86.3462,"RA_OF_ASC_NODE":334.0677,"ARG_OF_PERICENTER":72.6099,"MEAN_ANOMALY":287.6855,"EPHEMERIS_TYPE":0,"CLASSIFICATION_TYPE":"U","NORAD_CAT_ID":35806,"ELEMENT_SET_NO":999,"REV_AT_EPOCH":87864,"BSTAR":0.0010059062,"MEAN_MOTION_DOT":4.716e-5,"MEAN_MOTION_DDOT":0},{"OBJECT_NAME":"IRIDIUM 33 DEB","OBJECT_ID":"1997-051ST","EPOCH":"2026-03-25T07:04:57.725184","MEAN_MOTION":14.78236485,"ECCENTRICITY":0.00099849,"INCLINATION":86.3231,"RA_OF_ASC_NODE":288.5466,"ARG_OF_PERICENTER":248.6716,"MEAN_ANOMALY":111.3439,"EPHEMERIS_TYPE":0,"CLASSIFICATION_TYPE":"U","NORAD_CAT_ID":35809,"ELEMENT_SET_NO":999,"REV_AT_EPOCH":88321,"BSTAR":0.0011228989,"MEAN_MOTION_DOT":8.178e-5,"MEAN_MOTION_DDOT":0},{"OBJECT_NAME":"IRIDIUM 33 DEB","OBJECT_ID":"1997-051SW","EPOCH":"2026-03-28T18:23:28.019328","MEAN_MOTION":14.43634847,"ECCENTRICITY":0.00171365,"INCLINATION":86.3793,"RA_OF_ASC_NODE":13.574,"ARG_OF_PERICENTER":177.2789,"MEAN_ANOMALY":182.8509,"EPHEMERIS_TYPE":0,"CLASSIFICATION_TYPE":"U","NORAD_CAT_ID":35846,"ELEMENT_SET_NO":999,"REV_AT_EPOCH":72858,"BSTAR":0.00053579235,"MEAN_MOTION_DOT":1.839e-5,"MEAN_MOTION_DDOT":0},{"OBJECT_NAME":"IRIDIUM 33 DEB","OBJECT_ID":"1997-051SY","EPOCH":"2026-03-28T22:34:17.595552","MEAN_MOTION":14.81671014,"ECCENTRICITY":0.0006673,"INCLINATION":86.3906,"RA_OF_ASC_NODE":328.262,"ARG_OF_PERICENTER":177.2696,"MEAN_ANOMALY":182.8563,"EPHEMERIS_TYPE":0,"CLASSIFICATION_TYPE":"U","NORAD_CAT_ID":35848,"ELEMENT_SET_NO":999,"REV_AT_EPOCH":68261,"BSTAR":0.0015282,"MEAN_MOTION_DOT":0.00012064,"MEAN_MOTION_DDOT":0},{"OBJECT_NAME":"IRIDIUM 33 DEB","OBJECT_ID":"1997-051TA","EPOCH":"2026-03-27T20:28:54.442560","MEAN_MOTION":14.81712481,"ECCENTRICITY":0.00087669,"INCLINATION":86.3454,"RA_OF_ASC_NODE":296.3168,"ARG_OF_PERICENTER":180.9419,"MEAN_ANOMALY":179.1788,"EPHEMERIS_TYPE":0,"CLASSIFICATION_TYPE":"U","NORAD_CAT_ID":35850,"ELEMENT_SET_NO":999,"REV_AT_EPOCH":72912,"BSTAR":0.0012938312,"MEAN_MOTION_DOT":0.00010228,"MEAN_MOTION_DDOT":0},{"OBJECT_NAME":"IRIDIUM 33 DEB","OBJECT_ID":"1997-051TY","EPOCH":"2026-03-23T20:52:41.182176","MEAN_MOTION":14.83975606,"ECCENTRICITY":0.00097057,"INCLINATION":86.3396,"RA_OF_ASC_NODE":296.6253,"ARG_OF_PERICENTER":195.9754,"MEAN_ANOMALY":164.1165,"EPHEMERIS_TYPE":0,"CLASSIFICATION_TYPE":"U","NORAD_CAT_ID":35915,"ELEMENT_SET_NO":999,"REV_AT_EPOCH":9584,"BSTAR":0.0015383613,"MEAN_MOTION_DOT":0.00012841,"MEAN_MOTION_DDOT":0},{"OBJECT_NAME":"IRIDIUM 33 DEB","OBJECT_ID":"1997-051UB","EPOCH":"2026-03-27T03:50:15.272736","MEAN_MOTION":14.52230979,"ECCENTRICITY":0.00251448,"INCLINATION":86.4031,"RA_OF_ASC_NODE":30.9426,"ARG_OF_PERICENTER":176.1097,"MEAN_ANOMALY":248.6712,"EPHEMERIS_TYPE":0,"CLASSIFICATION_TYPE":"U","NORAD_CAT_ID":35918,"ELEMENT_SET_NO":999,"REV_AT_EPOCH":86722,"BSTAR":0.00094823476,"MEAN_MOTION_DOT":3.884e-5,"MEAN_MOTION_DDOT":0},{"OBJECT_NAME":"IRIDIUM 33 DEB","OBJECT_ID":"1997-051UN","EPOCH":"2026-03-28T18:04:36.054048","MEAN_MOTION":15.11324988,"ECCENTRICITY":0.0012787,"INCLINATION":86.3367,"RA_OF_ASC_NODE":262.071,"ARG_OF_PERICENTER":358.3936,"MEAN_ANOMALY":1.7259,"EPHEMERIS_TYPE":0,"CLASSIFICATION_TYPE":"U","NORAD_CAT_ID":35929,"ELEMENT_SET_NO":999,"REV_AT_EPOCH":89376,"BSTAR":0.0030008,"MEAN_MOTION_DOT":0.00050953,"MEAN_MOTION_DDOT":0},{"OBJECT_NAME":"IRIDIUM 33 DEB","OBJECT_ID":"1997-051US","EPOCH":"2026-03-28T10:56:33.353376","MEAN_MOTION":14.4173214,"ECCENTRICITY":0.00164597,"INCLINATION":86.3454,"RA_OF_ASC_NODE":350.0226,"ARG_OF_PERICENTER":230.1487,"MEAN_ANOMALY":253.1694,"EPHEMERIS_TYPE":0,"CLASSIFICATION_TYPE":"U","NORAD_CAT_ID":36011,"ELEMENT_SET_NO":999,"REV_AT_EPOCH":66063,"BSTAR":0.00043140176,"MEAN_MOTION_DOT":1.428e-5,"MEAN_MOTION_DDOT":0},{"OBJECT_NAME":"IRIDIUM 33 DEB","OBJECT_ID":"1997-051UT","EPOCH":"2026-03-27T22:19:13.383264","MEAN_MOTION":14.20760415,"ECCENTRICITY":0.021483,"INCLINATION":86.439,"RA_OF_ASC_NODE":265.0464,"ARG_OF_PERICENTER":286.7465,"MEAN_ANOMALY":71.0249,"EPHEMERIS_TYPE":0,"CLASSIFICATION_TYPE":"U","NORAD_CAT_ID":36012,"ELEMENT_SET_NO":999,"REV_AT_EPOCH":66977,"BSTAR":0.0013895,"MEAN_MOTION_DOT":3.801e-5,"MEAN_MOTION_DDOT":0},{"OBJECT_NAME":"IRIDIUM 33 DEB","OBJECT_ID":"1997-051VK","EPOCH":"2026-03-23T18:19:43.299840","MEAN_MOTION":15.01072614,"ECCENTRICITY":0.00158258,"INCLINATION":86.3173,"RA_OF_ASC_NODE":258.9505,"ARG_OF_PERICENTER":42.8619,"MEAN_ANOMALY":317.3843,"EPHEMERIS_TYPE":0,"CLASSIFICATION_TYPE":"U","NORAD_CAT_ID":36028,"ELEMENT_SET_NO":999,"REV_AT_EPOCH":88637,"BSTAR":0.0017802262,"MEAN_MOTION_DOT":0.00022892,"MEAN_MOTION_DDOT":0}]
