IRIDIUM 33 DEB          
1 35628U 97051RA  26086.37343813  .00005725  00000+0  96163-3 0  9996
2 35628  86.3569 322.3551 0011098 342.8919  17.1920 14.69480901879825
IRIDIUM 33 DEB          
1 35631U 97051RD  26087.71958859  .00001097  00000+0  29156-3 0  9997
2 35631  86.3693 335.3535 0018371 122.6900 300.5355 14.47677457887301
IRIDIUM 33 DEB          
1 35680U 97051RJ  26087.94284262  .00005603  00000+0  22286-2 0  9999
2 35680  86.1041 334.4495 0150104 302.7665  72.9155 14.22577446622108
IRIDIUM 33 DEB          
1 35744U 97051RX  26087.24650174  .00006914  00000+0  10787-2 0  9991
2 35744  86.3240 277.6922 0020243 189.0661 171.0193 14.72628730888832
IRIDIUM 33 DEB          
1 35797U 97051SF  26086.79949953  .00012644  00000+0  14347-2 0  9997
2 35797  86.3305 281.5603 0012223 143.5849 216.6209 14.86186887888992
IRIDIUM 33 DEB          
1 35806U 97051SQ  26087.41700966  .00004716  00000+0  10059-2 0  9994
2 35806  86.3462 334.0677 0015971  72.6099 287.6855 14.58659928878640
IRIDIUM 33 DEB          
1 35809U 97051ST  26084.29511256  .00008178  00000+0  11229-2 0  9998
2 35809  86.3231 288.5466 0009984 248.6716 111.3439 14.78236485883215
IRIDIUM 33 DEB          
1 35846U 97051SW  26087.76629652  .00001839  00000+0  53579-3 0  9996
2 35846  86.3793  13.5740 0017136 177.2789 182.8509 14.43634847728580
IRIDIUM 33 DEB          
1 35848U 97051SY  26087.94048143  .00012064  00000+0  15282-2 0  9998
2 35848  86.3906 328.2620 0006673 177.2696 182.8563 14.81671014682614
IRIDIUM 33 DEB          
1 35850U 97051TA  26086.85340790  .00010228  00000+0  12938-2 0  9998
2 35850  86.3454 296.3168 0008766 180.9419 179.1788 14.81712481729126
IRIDIUM 33 DEB          
1 35915U 97051TY  26082.86992109  .00012841  00000+0  15384-2 0  9995
2 35915  86.3396 296.6253 0009705 195.9754 164.1165 14.83975606 95843
IRIDIUM 33 DEB          
1 35918U 97051UB  26086.15989899  .00003884  00000+0  94823-3 0  9999
2 35918  86.4031  30.9426 0025144 176.1097 248.6712 14.52230979867228
IRIDIUM 33 DEB          
1 35929U 97051UN  26087.75319507  .00050953  00000+0  30008-2 0  9994
2 35929  86.3367 262.0710 0012787 358.3936   1.7259 15.11324988893762
IRIDIUM 33 DEB          
1 36011U 97051US  26087.45594159  .00001428  00000+0  43140-3 0  9997
2 36011  86.3454 350.0226 0016459 230.1487 253.1694 14.41732140660639
IRIDIUM 33 DEB          
1 36012U 97051UT  26086.93001601  .00003801  00000+0  13895-2 0  9995
2 36012  86.4390 265.0464 0214830 286.7465  71.0249 14.20760415669775
IRIDIUM 33 DEB          
1 36028U 97051VK  26082.76369560  .00022892  00000+0  17802-2 0  9993
2 36028  86.3173 258.9505 0015825  42.8619 317.3843 15.01072614886372
